ONEWEB-0517             
1 54135U 22138Y   24080.60859007  .00000072  00000+0  14865-3 0  9998
2 54135  87.9103 107.9111 0001979  82.0836 278.0522 13.19723295 68867
ONEWEB-0518             
1 54136U 22138Z   24080.62754220  .00000031  00000+0  44445-4 0  9995
2 54136  87.9111 107.9150 0002080  88.8634 271.2737 13.19723217 68861
ONEWEB-0519             
1 54137U 22138AA  24080.57700871  .00000094  00000+0  20220-3 0  9996
2 54137  87.9103 107.9134 0002116  80.4197 279.7175 13.19724143 69732
ONEWEB-0520             
1 54138U 22138AB  24080.61175191  .00000020  00000+0  18696-4 0  9997
2 54138  87.9103 107.9095 0001711  77.8950 282.2374 13.19725626 68855
ONEWEB-0521             
1 54139U 22138AC  24080.56908925  .00000062  00000+0  12335-3 0  9990
2 54139  87.9104 107.9122 0002300  95.9844 264.1551 13.19726500 69697
ONEWEB-0522             
1 54140U 22138AD  24080.62437339  .00000048  00000+0  88393-4 0  9997
2 54140  87.9101 107.9032 0001800  91.9635 268.1704 13.19726678 68840
ONEWEB-0523             
1 54141U 22138AE  24080.93289959  .00000070  00000+0  13912-3 0  9994
2 54141  87.9133  77.2706 0002381 111.6419 248.4968 13.20773063 71296
ONEWEB-0524             
1 54142U 22138AF  24080.92183558  .00000096  00000+0  20344-3 0  9997
2 54142  87.9130  77.2768 0001307 126.9824 233.1429 13.20773758 71292
